ONEWEB-0166             
1 48065U 21025Z   26019.29592598  .00000224  00000+0  57771-3 0  9997
2 48065  87.9012 349.7837 0001898  87.3306 272.8041 13.13469435234109
ONEWEB-0151             
1 48066U 21025AA  26019.29761852  .00000211  00000+0  54272-3 0  9998
2 48066  87.9012 349.8103 0001604  82.0649 278.0662 13.13470030234047
ONEWEB-0170             
1 48067U 21025AB  26019.30606733 -.00000013  00000+0 -69549-4 0  9993
2 48067  87.9007 349.8116 0001529  67.7431 292.3861 13.13467796234002
ONEWEB-0168             
1 48068U 21025AC  26019.29084909  .00000273  00000+0  71267-3 0  9992
2 48068  87.9014 349.8024 0001711  88.7327 271.3998 13.13469599234011
ONEWEB-0173             
1 48069U 21025AD  26019.28238151  .00000385  00000+0  10204-2 0  9999
2 48069  87.9012 349.8117 0001557  95.5677 264.5630 13.13470267234252
ONEWEB-0171             
1 48070U 21025AE  26019.16726091 -.00000325  00000+0 -92385-3 0  9990
2 48070  87.9001 349.8517 0001658  82.3534 277.7783 13.13470203234057
ONEWEB-0172             
1 48071U 21025AF  26019.29931195  .00000185  00000+0  47247-3 0  9997
2 48071  87.9009 349.8116 0001587  84.7083 275.4227 13.13469194234962
ONEWEB-0174             
1 48072U 21025AG  26019.28068629  .00000418  00000+0  11087-2 0  9991
2 48072  87.9002 349.8171 0001861  86.7888 273.3454 13.13470533234280
ONEWEB-0175             
1 48073U 21025AH  26019.31116037 -.00000107  00000+0 -32728-3 0  9996
2 48073  87.9011 349.7827 0001454  77.0159 283.1132 13.13469048233943
ONEWEB-0177             
1 48074U 21025AJ  26019.17065146 -.00000312  00000+0 -88971-3 0  9994
2 48074  87.9011 349.8307 0001808  89.7970 270.3367 13.13469960234113
ONEWEB-0178             
1 48075U 21025AK  26019.18942123 -.00000042  00000+0 -15032-3 0  9993
2 48075  87.8996 349.8635 0001476  86.4772 273.6526 13.13469487234166
ONEWEB-0108             
1 48076U 21025AL  26019.30099691  .00000158  00000+0  39834-3 0  9993
2 48076  87.9011 349.7941 0001962  79.8542 280.2809 13.13470259234107
ONEWEB-0169             
1 48077U 21025AM  26019.18080948 -.00000270  00000+0 -77325-3 0  9999
2 48077  87.9006 349.8371 0001967  80.8675 279.2677 13.13469630232744
ONEWEB-0176             
1 48210U 21031A   26019.29260709  .00000127  00000+0  30926-3 0  9997
2 48210  87.9028 319.3745 0001617  78.4783 281.6528 13.14504107228757
ONEWEB-0184             
1 48211U 21031B   26019.26564710  .00000208  00000+0  52626-3 0  9995
2 48211  87.9039 319.3649 0000905  64.8998 295.2226 13.14503726228728
ONEWEB-0179             
1 48212U 21031C   26019.31241033 -.00000131  00000+0 -38751-3 0  9992
2 48212  87.9033 319.3610 0001839  85.7920 274.3420 13.14501115228774
