[{"OBJECT_NAME":"ONEWEB-0166","OBJECT_ID":"2021-025Z","EPOCH":"2026-01-19T07:06:08.004672","MEAN_MOTION":13.13469435,"ECCENTRICITY":0.00018985,"INCLINATION":87.9012,"RA_OF_ASC_NODE":349.7837,"ARG_OF_PERICENTER":87.3306,"MEAN_ANOMALY":272.8041,"EPHEMERIS_TYPE":0,"CLASSIFICATION_TYPE":"U","NORAD_CAT_ID":48065,"ELEMENT_SET_NO":999,"REV_AT_EPOCH":23410,"BSTAR":0.00057770501,"MEAN_MOTION_DOT":2.24e-6,"MEAN_MOTION_DDOT":0},{"OBJECT_NAME":"ONEWEB-0151","OBJECT_ID":"2021-025AA","EPOCH":"2026-01-19T07:08:34.240128","MEAN_MOTION":13.1347003,"ECCENTRICITY":0.00016043,"INCLINATION":87.9012,"RA_OF_ASC_NODE":349.8103,"ARG_OF_PERICENTER":82.0649,"MEAN_ANOMALY":278.0662,"EPHEMERIS_TYPE":0,"CLASSIFICATION_TYPE":"U","NORAD_CAT_ID":48066,"ELEMENT_SET_NO":999,"REV_AT_EPOCH":23404,"BSTAR":0.00054272021,"MEAN_MOTION_DOT":2.11e-6,"MEAN_MOTION_DDOT":0},{"OBJECT_NAME":"ONEWEB-0170","OBJECT_ID":"2021-025AB","EPOCH":"2026-01-19T07:20:44.217312","MEAN_MOTION":13.13467796,"ECCENTRICITY":0.00015292,"INCLINATION":87.9007,"RA_OF_ASC_NODE":349.8116,"ARG_OF_PERICENTER":67.7431,"MEAN_ANOMALY":292.3861,"EPHEMERIS_TYPE":0,"CLASSIFICATION_TYPE":"U","NORAD_CAT_ID":48067,"ELEMENT_SET_NO":999,"REV_AT_EPOCH":23400,"BSTAR":-6.9548796e-5,"MEAN_MOTION_DOT":-1.3e-7,"MEAN_MOTION_DDOT":0},{"OBJECT_NAME":"ONEWEB-0168","OBJECT_ID":"2021-025AC","EPOCH":"2026-01-19T06:58:49.361376","MEAN_MOTION":13.13469599,"ECCENTRICITY":0.00017111,"INCLINATION":87.9014,"RA_OF_ASC_NODE":349.8024,"ARG_OF_PERICENTER":88.7327,"MEAN_ANOMALY":271.3998,"EPHEMERIS_TYPE":0,"CLASSIFICATION_TYPE":"U","NORAD_CAT_ID":48068,"ELEMENT_SET_NO":999,"REV_AT_EPOCH":23401,"BSTAR":0.00071266694,"MEAN_MOTION_DOT":2.73e-6,"MEAN_MOTION_DDOT":0},{"OBJECT_NAME":"ONEWEB-0173","OBJECT_ID":"2021-025AD","EPOCH":"2026-01-19T06:46:37.762464","MEAN_MOTION":13.13470267,"ECCENTRICITY":0.00015576,"INCLINATION":87.9012,"RA_OF_ASC_NODE":349.8117,"ARG_OF_PERICENTER":95.5677,"MEAN_ANOMALY":264.563,"EPHEMERIS_TYPE":0,"CLASSIFICATION_TYPE":"U","NORAD_CAT_ID":48069,"ELEMENT_SET_NO":999,"REV_AT_EPOCH":23425,"BSTAR":0.001020353,"MEAN_MOTION_DOT":3.85e-6,"MEAN_MOTION_DDOT":0},{"OBJECT_NAME":"ONEWEB-0171","OBJECT_ID":"2021-025AE","EPOCH":"2026-01-19T04:00:51.342624","MEAN_MOTION":13.13470203,"ECCENTRICITY":0.0001658,"INCLINATION":87.9001,"RA_OF_ASC_NODE":349.8517,"ARG_OF_PERICENTER":82.3534,"MEAN_ANOMALY":277.7783,"EPHEMERIS_TYPE":0,"CLASSIFICATION_TYPE":"U","NORAD_CAT_ID":48070,"ELEMENT_SET_NO":999,"REV_AT_EPOCH":23405,"BSTAR":-0.00092385023,"MEAN_MOTION_DOT":-3.25e-6,"MEAN_MOTION_DDOT":0},{"OBJECT_NAME":"ONEWEB-0172","OBJECT_ID":"2021-025AF","EPOCH":"2026-01-19T07:11:00.552480","MEAN_MOTION":13.13469194,"ECCENTRICITY":0.00015876,"INCLINATION":87.9009,"RA_OF_ASC_NODE":349.8116,"ARG_OF_PERICENTER":84.7083,"MEAN_ANOMALY":275.4227,"EPHEMERIS_TYPE":0,"CLASSIFICATION_TYPE":"U","NORAD_CAT_ID":48071,"ELEMENT_SET_NO":999,"REV_AT_EPOCH":23496,"BSTAR":0.00047247403,"MEAN_MOTION_DOT":1.85e-6,"MEAN_MOTION_DDOT":0},{"OBJECT_NAME":"ONEWEB-0174","OBJECT_ID":"2021-025AG","EPOCH":"2026-01-19T06:44:11.295456","MEAN_MOTION":13.13470533,"ECCENTRICITY":0.00018619,"INCLINATION":87.9002,"RA_OF_ASC_NODE":349.8171,"ARG_OF_PERICENTER":86.7888,"MEAN_ANOMALY":273.3454,"EPHEMERIS_TYPE":0,"CLASSIFICATION_TYPE":"U","NORAD_CAT_ID":48072,"ELEMENT_SET_NO":999,"REV_AT_EPOCH":23428,"BSTAR":0.0011087143,"MEAN_MOTION_DOT":4.18e-6,"MEAN_MOTION_DDOT":0},{"OBJECT_NAME":"ONEWEB-0175","OBJECT_ID":"2021-025AH","EPOCH":"2026-01-19T07:28:04.255968","MEAN_MOTION":13.13469048,"ECCENTRICITY":0.0001454,"INCLINATION":87.9011,"RA_OF_ASC_NODE":349.7827,"ARG_OF_PERICENTER":77.0159,"MEAN_ANOMALY":283.1132,"EPHEMERIS_TYPE":0,"CLASSIFICATION_TYPE":"U","NORAD_CAT_ID":48073,"ELEMENT_SET_NO":999,"REV_AT_EPOCH":23394,"BSTAR":-0.00032728433,"MEAN_MOTION_DOT":-1.07e-6,"MEAN_MOTION_DDOT":0},{"OBJECT_NAME":"ONEWEB-0177","OBJECT_ID":"2021-025AJ","EPOCH":"2026-01-19T04:05:44.286144","MEAN_MOTION":13.1346996,"ECCENTRICITY":0.00018087,"INCLINATION":87.9011,"RA_OF_ASC_NODE":349.8307,"ARG_OF_PERICENTER":89.797,"MEAN_ANOMALY":270.3367,"EPHEMERIS_TYPE":0,"CLASSIFICATION_TYPE":"U","NORAD_CAT_ID":48074,"ELEMENT_SET_NO":999,"REV_AT_EPOCH":23411,"BSTAR":-0.00088970694,"MEAN_MOTION_DOT":-3.12e-6,"MEAN_MOTION_DDOT":0},{"OBJECT_NAME":"ONEWEB-0178","OBJECT_ID":"2021-025AK","EPOCH":"2026-01-19T04:32:45.994272","MEAN_MOTION":13.13469487,"ECCENTRICITY":0.00014765,"INCLINATION":87.8996,"RA_OF_ASC_NODE":349.8635,"ARG_OF_PERICENTER":86.4772,"MEAN_ANOMALY":273.6526,"EPHEMERIS_TYPE":0,"CLASSIFICATION_TYPE":"U","NORAD_CAT_ID":48075,"ELEMENT_SET_NO":999,"REV_AT_EPOCH":23416,"BSTAR":-0.00015031799,"MEAN_MOTION_DOT":-4.2e-7,"MEAN_MOTION_DDOT":0},{"OBJECT_NAME":"ONEWEB-0108","OBJECT_ID":"2021-025AL","EPOCH":"2026-01-19T07:13:26.133024","MEAN_MOTION":13.13470259,"ECCENTRICITY":0.00019622,"INCLINATION":87.9011,"RA_OF_ASC_NODE":349.7941,"ARG_OF_PERICENTER":79.8542,"MEAN_ANOMALY":280.2809,"EPHEMERIS_TYPE":0,"CLASSIFICATION_TYPE":"U","NORAD_CAT_ID":48076,"ELEMENT_SET_NO":999,"REV_AT_EPOCH":23410,"BSTAR":0.00039834463,"MEAN_MOTION_DOT":1.58e-6,"MEAN_MOTION_DDOT":0},{"OBJECT_NAME":"ONEWEB-0169","OBJECT_ID":"2021-025AM","EPOCH":"2026-01-19T04:20:21.939072","MEAN_MOTION":13.1346963,"ECCENTRICITY":0.00019672,"INCLINATION":87.9006,"RA_OF_ASC_NODE":349.8371,"ARG_OF_PERICENTER":80.8675,"MEAN_ANOMALY":279.2677,"EPHEMERIS_TYPE":0,"CLASSIFICATION_TYPE":"U","NORAD_CAT_ID":48077,"ELEMENT_SET_NO":999,"REV_AT_EPOCH":23274,"BSTAR":-0.00077324726,"MEAN_MOTION_DOT":-2.7e-6,"MEAN_MOTION_DDOT":0},{"OBJECT_NAME":"ONEWEB-0176","OBJECT_ID":"2021-031A","EPOCH":"2026-01-19T07:01:21.252576","MEAN_MOTION":13.14504107,"ECCENTRICITY":0.00016173,"INCLINATION":87.9028,"RA_OF_ASC_NODE":319.3745,"ARG_OF_PERICENTER":78.4783,"MEAN_ANOMALY":281.6528,"EPHEMERIS_TYPE":0,"CLASSIFICATION_TYPE":"U","NORAD_CAT_ID":48210,"ELEMENT_SET_NO":999,"REV_AT_EPOCH":22875,"BSTAR":0.0003092626,"MEAN_MOTION_DOT":1.27e-6,"MEAN_MOTION_DDOT":0},{"OBJECT_NAME":"ONEWEB-0184","OBJECT_ID":"2021-031B","EPOCH":"2026-01-19T06:22:31.909440","MEAN_MOTION":13.14503726,"ECCENTRICITY":9.057e-5,"INCLINATION":87.9039,"RA_OF_ASC_NODE":319.3649,"ARG_OF_PERICENTER":64.8998,"MEAN_ANOMALY":295.2226,"EPHEMERIS_TYPE":0,"CLASSIFICATION_TYPE":"U","NORAD_CAT_ID":48211,"ELEMENT_SET_NO":999,"REV_AT_EPOCH":22872,"BSTAR":0.00052626099,"MEAN_MOTION_DOT":2.08e-6,"MEAN_MOTION_DDOT":0},{"OBJECT_NAME":"ONEWEB-0179","OBJECT_ID":"2021-031C","EPOCH":"2026-01-19T07:29:52.252512","MEAN_MOTION":13.14501115,"ECCENTRICITY":0.00018397,"INCLINATION":87.9033,"RA_OF_ASC_NODE":319.361,"ARG_OF_PERICENTER":85.792,"MEAN_ANOMALY":274.342,"EPHEMERIS_TYPE":0,"CLASSIFICATION_TYPE":"U","NORAD_CAT_ID":48212,"ELEMENT_SET_NO":999,"REV_AT_EPOCH":22877,"BSTAR":-0.00038751376,"MEAN_MOTION_DOT":-1.31e-6,"MEAN_MOTION_DDOT":0}]
